[{"OBJECT_NAME":"STARLINK-5534","OBJECT_ID":"2023-064AF","EPOCH":"2026-03-09T02:31:15.093984","MEAN_MOTION":14.98347696,"ECCENTRICITY":0.00034307,"INCLINATION":69.9988,"RA_OF_ASC_NODE":125.8565,"ARG_OF_PERICENTER":273.9201,"MEAN_ANOMALY":86.1566,"EPHEMERIS_TYPE":0,"CLASSIFICATION_TYPE":"U","NORAD_CAT_ID":56477,"ELEMENT_SET_NO":999,"REV_AT_EPOCH":15565,"BSTAR":-0.00036831184,"MEAN_MOTION_DOT":-4.487e-5,"MEAN_MOTION_DDOT":0},{"OBJECT_NAME":"CZ-2F R\/B","OBJECT_ID":"2026-024B","EPOCH":"2026-03-09T21:33:36.475776","MEAN_MOTION":15.34345765,"ECCENTRICITY":0.01743731,"INCLINATION":49.9895,"RA_OF_ASC_NODE":13.5528,"ARG_OF_PERICENTER":275.7155,"MEAN_ANOMALY":82.3946,"EPHEMERIS_TYPE":0,"CLASSIFICATION_TYPE":"U","NORAD_CAT_ID":67690,"ELEMENT_SET_NO":999,"REV_AT_EPOCH":472,"BSTAR":0.00037009281,"MEAN_MOTION_DOT":0.00020274,"MEAN_MOTION_DDOT":0}]
